NORAD_CAT_ID,OBJECT_NAME,OBJECT_TYPE,EPOCH,MEAN_MOTION,ECCENTRICITY,INCLINATION,RA_OF_ASC_NODE,ARG_OF_PERICENTER,MEAN_ANOMALY,BSTAR,MEAN_MOTION_DOT,MEAN_MOTION_DDOT,TLE_LINE0,TLE_LINE1,TLE_LINE2,SEMIMAJOR_AXIS,PERIOD,APOGEE,PERIGEE,DECAYED
53563.0,STARLINK-4561,PAYLOAD,2024-01-23 23:06:41,15.08846331,0.0001397,53.2165,296.7212,87.072,273.0432,0.00012709,1.736e-05,0.0,0 STARLINK-4561,1 53563U 22101AN  24023.96297476  .00001736  00000-0  12709-3 0  9998,2 53563  53.2165 296.7212 0001397  87.0720 273.0432 15.08846331 79331,6917.861,95.437,540.692,538.76,0.0
53563.0,STARLINK-4561,PAYLOAD,2024-01-24 02:17:27,15.08851861,0.0001191,53.2165,296.1258,93.9638,266.149,0.00024747,3.654e-05,0.0,0 STARLINK-4561,1 53563U 22101AN  24024.09545148  .00003654  00000-0  24747-3 0  9991,2 53563  53.2165 296.1258 0001191  93.9638 266.1490 15.08851861 79354,6917.844,95.437,540.533,538.885,0.0
53563.0,STARLINK-4561,PAYLOAD,2024-01-24 05:28:12,15.08859953,0.000126,53.2165,295.5313,94.7093,265.4043,0.00033189,5.001e-05,0.0,0 STARLINK-4561,1 53563U 22101AN  24024.22792728  .00005001  00000-0  33189-3 0  9992,2 53563  53.2165 295.5313 0001260  94.7093 265.4043 15.08859953 79378,6917.819,95.436,540.556,538.813,0.0
53563.0,STARLINK-4561,PAYLOAD,2024-01-24 19:46:41,15.08839115,0.0001206,53.2163,292.8552,101.0595,259.0532,-2.6582e-05,-7.11e-06,0.0,0 STARLINK-4561,1 53563U 22101AN  24024.82409703 -.00000711  00000-0 -26582-4 0  9991,2 53563  53.2163 292.8552 0001206 101.0595 259.0532 15.08839115 79460,6917.883,95.438,540.582,538.914,0.0
53563.0,STARLINK-4561,PAYLOAD,2024-01-24 21:22:05,15.08841641,0.0001191,53.2163,292.5578,101.9412,258.1714,5.2321e-05,5.45e-06,0.0,0 STARLINK-4561,1 53563U 22101AN  24024.89033615  .00000545  00000-0  52321-4 0  9996,2 53563  53.2163 292.5578 0001191 101.9412 258.1714 15.08841641 79475,6917.875,95.437,540.564,538.916,0.0
53563.0,STARLINK-4561,PAYLOAD,2024-01-25 02:08:14,15.08846263,0.0001234,53.2163,291.6652,102.3768,257.7362,0.00045071,6.894e-05,0.0,0 STARLINK-4561,1 53563U 22101AN  24025.08905578  .00006894  00000-0  45071-3 0  9990,2 53563  53.2163 291.6652 0001234 102.3768 257.7362 15.08846263 79508,6917.861,95.437,540.58,538.873,0.0
53563.0,STARLINK-4561,PAYLOAD,2024-01-25 22:48:15,15.08836152,0.000123,53.2161,287.8003,99.5736,260.5395,0.00023457,3.447e-05,0.0,0 STARLINK-4561,1 53563U 22101AN  24025.95018272  .00003447  00000-0  23457-3 0  9997,2 53563  53.2161 287.8003 0001230  99.5736 260.5395 15.08836152 79639,6917.892,95.438,540.608,538.906,0.0
53563.0,STARLINK-4561,PAYLOAD,2024-01-26 00:23:38,15.08840903,0.0001252,53.216,287.5028,101.1049,259.0084,0.00039065,5.935e-05,0.0,0 STARLINK-4561,1 53563U 22101AN  24026.01642215  .00005935  00000-0  39065-3 0  9991,2 53563  53.2160 287.5028 0001252 101.1049 259.0084 15.08840903 79641,6917.878,95.437,540.609,538.877,0.0
53563.0,STARLINK-4561,PAYLOAD,2024-01-26 16:17:30,15.08839798,0.0001325,53.2156,284.5284,108.3893,251.7243,0.00026027,3.857e-05,0.0,0 STARLINK-4561,1 53563U 22101AN  24026.67882313  .00003857  00000-0  26027-3 0  9993,2 53563  53.2156 284.5284 0001325 108.3893 251.7243 15.08839798 79741,6917.881,95.438,540.663,538.829,0.0
53563.0,STARLINK-4561,PAYLOAD,2024-01-26 22:39:02,15.08846652,0.0001319,53.2153,283.3394,103.5056,256.6083,0.00031799,4.777e-05,0.0,0 STARLINK-4561,1 53563U 22101AN  24026.94378070  .00004777  00000-0  31799-3 0  9997,2 53563  53.2153 283.3394 0001319 103.5056 256.6083 15.08846652 79785,6917.86,95.437,540.638,538.813,0.0
53563.0,STARLINK-4561,PAYLOAD,2024-01-27 20:54:27,15.08835005,0.000136,53.2153,279.1783,88.4,271.7148,0.00038154,5.789e-05,0.0,0 STARLINK-4561,1 53563U 22101AN  24027.87114670  .00005789  00000-0  38154-3 0  9990,2 53563  53.2153 279.1783 0001360  88.4000 271.7148 15.08835005 79922,6917.896,95.438,540.701,538.82,0.0
53563.0,STARLINK-4561,PAYLOAD,2024-01-28 01:40:36,15.08841832,0.0001259,53.2151,278.2854,88.6025,271.5111,0.00010697,1.415e-05,0.0,0 STARLINK-4561,1 53563U 22101AN  24028.06986297  .00001415  00000-0  10697-3 0  9998,2 53563  53.2151 278.2854 0001259  88.6025 271.5111 15.08841832 79951,6917.875,95.437,540.611,538.869,0.0
53563.0,STARLINK-4561,PAYLOAD,2024-01-28 22:20:37,15.08836832,0.0001388,53.2154,274.4217,96.9865,263.1285,4.2093e-05,3.82e-06,0.0,0 STARLINK-4561,1 53563U 22101AN  24028.93098788  .00000382  00000-0  42093-4 0  9991,2 53563  53.2154 274.4217 0001388  96.9865 263.1285 15.08836832 80081,6917.89,95.438,540.715,538.795,0.0
53563.0,STARLINK-4561,PAYLOAD,2024-01-29 01:31:23,15.08841179,0.0001401,53.2167,273.8174,90.0129,270.1024,0.00011316,1.514e-05,0.0,0 STARLINK-4561,1 53563U 22101AN  24029.06346621  .00001514  00000-0  11316-3 0  9999,2 53563  53.2167 273.8174 0001401  90.0129 270.1024 15.08841179 80106,6917.877,95.437,540.711,538.773,0.0
53563.0,STARLINK-4561,PAYLOAD,2024-01-30 15:40:38,15.08847153,0.0001267,53.2154,266.6853,95.71,264.4037,0.0001104,1.47e-05,0.0,0 STARLINK-4561,1 53563U 22101AN  24030.65322200  .00001470  00000-0  11040-3 0  9998,2 53563  53.2154 266.6853 0001267  95.7100 264.4037 15.08847153 80341,6917.859,95.437,540.6,538.847,0.0
53563.0,STARLINK-4561,PAYLOAD,2024-01-30 22:02:10,15.08847936,0.0001272,53.2162,265.4952,95.8753,264.2384,8.9827e-05,1.142e-05,0.0,0 STARLINK-4561,1 53563U 22101AN  24030.91818006  .00001142  00000-0  89827-4 0  9996,2 53563  53.2162 265.4952 0001272  95.8753 264.2384 15.08847936 80384,6917.856,95.437,540.601,538.841,0.0
53563.0,STARLINK-4561,PAYLOAD,2024-01-31 15:31:25,15.08842366,0.0001381,53.2162,262.2262,90.1448,269.9702,4.2771e-05,3.93e-06,0.0,0 STARLINK-4561,1 53563U 22101AN  24031.64682220  .00000393  00000-0  42771-4 0  9998,2 53563  53.2162 262.2262 0001381  90.1448 269.9702 15.08842366 80493,6917.873,95.437,540.694,538.783,0.0
53563.0,STARLINK-4561,PAYLOAD,2024-02-01 01:03:44,15.08841177,0.0001513,53.2158,260.4428,82.1203,277.9961,9.597e-05,1.24e-05,0.0,0 STARLINK-4561,1 53563U 22101AN  24032.04426070  .00001240  00000-0  95970-4 0  9993,2 53563  53.2158 260.4428 0001513  82.1203 277.9961 15.08841177 80551,6917.877,95.437,540.788,538.695,0.0
53563.0,STARLINK-4561,PAYLOAD,2024-02-01 18:32:59,15.08836101,0.0001634,53.2168,257.1694,105.9025,254.2147,2.2367e-05,6.8e-07,0.0,0 STARLINK-4561,1 53563U 22101AN  24032.77290591  .00000068  00000-0  22367-4 0  9997,2 53563  53.2168 257.1694 0001634 105.9025 254.2147 15.08836101 80667,6917.892,95.438,540.888,538.627,0.0
53563.0,STARLINK-4561,PAYLOAD,2024-02-02 15:13:00,15.08835176,0.0001595,53.2165,253.3019,104.7768,255.3401,3.1168e-05,2.08e-06,0.0,0 STARLINK-4561,1 53563U 22101AN  24033.63402858  .00000208  00000-0  31168-4 0  9999,2 53563  53.2165 253.3019 0001595 104.7768 255.3401 15.08835176 80790,6917.895,95.438,540.864,538.657,0.0
53563.0,STARLINK-4561,PAYLOAD,2024-02-02 19:59:09,15.08835836,0.0001538,53.2166,252.4121,101.9541,258.1623,2.1731e-05,5.8e-07,0.0,0 STARLINK-4561,1 53563U 22101AN  24033.83274874  .00000058  00000-0  21731-4 0  9994,2 53563  53.2166 252.4121 0001538 101.9541 258.1623 15.08835836 80824,6917.893,95.438,540.822,538.694,0.0
53563.0,STARLINK-4561,PAYLOAD,2024-02-03 00:45:18,15.08836536,0.000153,53.2164,251.5197,101.8677,258.2487,2.6994e-05,1.42e-06,0.0,0 STARLINK-4561,1 53563U 22101AN  24034.03146860  .00000142  00000-0  26994-4 0  9990,2 53563  53.2164 251.5197 0001530 101.8677 258.2487 15.08836536 80856,6917.891,95.438,540.814,538.698,0.0
53563.0,STARLINK-4561,PAYLOAD,2024-02-03 19:49:56,15.08834352,0.0001437,53.2165,247.9521,98.4685,261.647,6.1109e-05,6.85e-06,0.0,0 STARLINK-4561,1 53563U 22101AN  24034.82635257  .00000685  00000-0  61109-4 0  9999,2 53563  53.2165 247.9521 0001437  98.4685 261.6470 15.08834352 80970,6917.898,95.438,540.757,538.769,0.0
53563.0,STARLINK-4561,PAYLOAD,2024-02-04 00:36:06,15.08836667,0.0001433,53.2164,247.0594,98.7031,261.4123,7.3626e-05,8.84e-06,0.0,0 STARLINK-4561,1 53563U 22101AN  24035.02507091  .00000884  00000-0  73626-4 0  9994,2 53563  53.2164 247.0594 0001433  98.7031 261.4123 15.08836667 81003,6917.891,95.438,540.747,538.764,0.0
53563.0,STARLINK-4561,PAYLOAD,2024-02-04 19:40:46,15.08810476,6.36e-05,53.2141,243.4871,123.6581,236.4472,-7.4102e-05,-1.466e-05,0.0,0 STARLINK-4561,1 53563U 22101AN  24035.81998104 -.00001466  00000-0 -74102-4 0  9999,2 53563  53.2141 243.4871 0000636 123.6581 236.4472 15.08810476 81120,6917.971,95.439,540.276,539.396,0.0
53563.0,STARLINK-4561,PAYLOAD,2024-02-04 21:16:08,15.08835147,0.0001327,53.2159,243.1932,92.434,267.6805,7.9789e-05,9.82e-06,0.0,0 STARLINK-4561,1 53563U 22101AN  24035.88620379  .00000982  00000-0  79789-4 0  9998,2 53563  53.2159 243.1932 0001327  92.4340 267.6805 15.08835147 81137,6917.895,95.438,540.678,538.842,0.0
53563.0,STARLINK-4561,PAYLOAD,2024-02-05 13:09:59,15.08841256,0.0001289,53.2162,240.2184,90.5471,269.5669,0.00012582,1.715e-05,0.0,0 STARLINK-4561,1 53563U 22101AN  24036.54860112  .00001715  00000-0  12582-3 0  9995,2 53563  53.2162 240.2184 0001289  90.5471 269.5669 15.08841256 81237,6917.877,95.437,540.633,538.85,0.0
53563.0,STARLINK-4561,PAYLOAD,2024-02-05 17:56:08,15.08847603,0.0001207,53.2156,239.328,93.3011,266.8119,0.00013014,1.784e-05,0.0,0 STARLINK-4561,1 53563U 22101AN  24036.74731661  .00001784  00000-0  13014-3 0  9990,2 53563  53.2156 239.3280 0001207  93.3011 266.8119 15.08847603 81262,6917.857,95.437,540.557,538.887,0.0
53563.0,STARLINK-4561,PAYLOAD,2024-02-05 21:06:54,15.08850036,0.0001299,53.216,238.7332,91.556,268.5581,0.00015389,2.163e-05,0.0,0 STARLINK-4561,1 53563U 22101AN  24036.87979470  .00002163  00000-0  15389-3 0  9995,2 53563  53.2160 238.7332 0001299  91.5560 268.5581 15.08850036 81286,6917.85,95.437,540.613,538.816,0.0
53563.0,STARLINK-4561,PAYLOAD,2024-02-06 13:00:45,15.0883951,9.14e-05,53.2161,235.7596,95.2043,264.9053,0.00040205,6.117e-05,0.0,0 STARLINK-4561,1 53563U 22101AN  24037.54219537  .00006117  00000-0  40205-3 0  9999,2 53563  53.2161 235.7596 0000914  95.2043 264.9053 15.08839510 81385,6917.882,95.438,540.379,539.115,0.0
